ONEWEB-0683             
1 56719U 23068K   25073.82125655  .00000116  00000+0  27372-3 0  9999
2 56719  87.9139 350.6880 0001510  75.4179 284.7119 13.15550357 89023
ONEWEB-0684             
1 56720U 23068L   25073.82918630  .00000166  00000+0  40641-3 0  9993
2 56720  87.9113 350.7284 0003061  58.9783 301.1648 13.15550521 88850
ONEWEB-0686             
1 56721U 23068M   25074.22203440  .00000126  00000+0  29646-3 0  9993
2 56721  87.9088 320.3008 0001599  70.1638 289.9665 13.16596505 92027
ONEWEB-0694             
1 56722U 23068N   25073.96080510  .00000080  00000+0  17472-3 0  9998
2 56722  87.9084 320.2713 0001267  79.5637 280.5637 13.16595363 91341
ONEWEB-0696             
1 56723U 23068P   25073.78639119 -.00000360  00000+0 -99066-3 0  9996
2 56723  87.9144 350.7467 0002160  76.8437 283.2934 13.15548247 88966
ONEWEB-0703             
1 56724U 23068Q   25073.79591059 -.00000072  00000+0 -22502-3 0  9999
2 56724  87.9123 350.7588 0002968  86.4793 273.6677 13.15550179 88858
ONEWEB-0721             
1 56725U 23068R   25073.95766172 -.00000042  00000+0 -13622-3 0  9998
2 56725  86.6766 231.8406 0001652 101.5228 258.6091 13.22427243 97246
ONEWEB-0015             
1 61594U 24188A   25074.25002315  .00000015  00000+0  00000+0 0  9998
2 61594  87.5169 113.0157 0007755  83.1136 345.0560 13.58307521 22324
